{"places" : [
{
"placename" : "HSR Layout"
},
{
"placename" : "Bommanahalli"
},
{
"placename" : "Bommasandra"
},
{
"placename" : "SilkBoard"
},
{
"placename" : "Kormangala"
},
{
"placename" : "Madiwala"
},
{
"placename" : "HuskurGate"
},
{
"placename" : "Hosa Road"
},
{
"placename" : "Marathahalli"
},
{
"placename" : "KR Puram"
},
{
"placename" : "JP Nagar"
},
{
"placename" : "Yeshwantapur"
},
{
"placename" : "Baipanahalli"
},
{
"placename" : "Majestic"
},
{
"placename" : "Shanti Nagar"
},
{
"placename" : "Shivaji Nagar"
},
{
"placename" : "Kengeri"
},
{
"placename" : "Akshaya Nagar"
},
{
"placename" : "Whitefield"
},
{
"placename" : "Sarjapur"
},
{
"placename" : "yelehanka"
},
{
"placename" : "Tumkur"
},
{
"placename" : "Anekal"
},
{
"placename" : "Attibele"
},
{
"placename" : "Chickpet"
},
{
"placename" : "Malleshwaram"
},
{
"placename" : "Chamrajpet"
},
{
"placename" : "Hebbal"
},
{
"placename" : "Jayanagar"
},
{
"placename" : "HBR Layout"
},
{
"placename" : "BTM Layout"
},
{
"placename" : "Kadugodi"
},
{
"placename" : "Yalahanka"
},
{
"placename" : "IndiraNagar"
},
{
"placename" : "Banshankari"
},
{
"placename" : "Mahadevapura"
},
{
"placename" : "Banaswadi"
},
{
"placename" : "Domlur"
},
{
"placename" : "Cox Town"
},

]}
